{
  "52250428": {
    "id": 52250428,
    "type": "way",
    "tags": {
      "amenity": "toilets",
      "building": "yes"
    },
    "centroid": {
      "lat": "49.2539321",
      "lon": "-123.0614045"
    }
  },
  "74267954": {
    "id": 74267954,
    "type": "way",
    "tags": {
      "amenity": "toilets"
    },
    "centroid": {
      "lat": "49.2939565",
      "lon": "-123.1385469"
    }
  },
  "75320275": {
    "id": 75320275,
    "type": "way",
    "tags": {
      "amenity": "toilets",
      "building": "yes"
    },
    "centroid": {
      "lat": "49.2568473",
      "lon": "-123.0593222"
    }
  },
  "88295811": {
    "id": 88295811,
    "type": "way",
    "tags": {
      "amenity": "toilets",
      "building": "yes",
      "source": "local_knowledge"
    },
    "centroid": {
      "lat": "49.3124030",
      "lon": "-123.1426535"
    }
  },
  "119287313": {
    "id": 119287313,
    "type": "way",
    "tags": {
      "amenity": "toilets",
      "building": "yes"
    },
    "centroid": {
      "lat": "49.2822869",
      "lon": "-123.0574770"
    }
  },
  "127994164": {
    "id": 127994164,
    "type": "way",
    "tags": {
      "amenity": "toilets",
      "building": "yes"
    },
    "centroid": {
      "lat": "49.2387775",
      "lon": "-123.1115340"
    }
  },
  "131354072": {
    "id": 131354072,
    "type": "way",
    "tags": {
      "amenity": "toilets",
      "building": "yes"
    },
    "centroid": {
      "lat": "49.2230974",
      "lon": "-123.1596305"
    }
  },
  "165560423": {
    "id": 165560423,
    "type": "way",
    "tags": {
      "amenity": "toilets"
    },
    "centroid": {
      "lat": "49.2365414",
      "lon": "-123.0366623"
    }
  },
  "166090137": {
    "id": 166090137,
    "type": "way",
    "tags": {
      "amenity": "toilets",
      "building": "yes"
    },
    "centroid": {
      "lat": "49.2379711",
      "lon": "-123.0514142"
    }
  },
  "183463630": {
    "id": 183463630,
    "type": "way",
    "tags": {
      "amenity": "toilets",
      "building": "yes",
      "fee": "no"
    },
    "centroid": {
      "lat": "49.2774141",
      "lon": "-123.1504459"
    }
  },
  "276800886": {
    "id": 276800886,
    "type": "node",
    "lat": 49.2132425,
    "lon": -123.16858090000001,
    "tags": {
      "amenity": "toilets",
      "created_by": "JOSM"
    }
  },
  "276800887": {
    "id": 276800887,
    "type": "node",
    "lat": 49.219343200000004,
    "lon": -123.213586,
    "tags": {
      "amenity": "toilets",
      "created_by": "JOSM"
    }
  },
  "289809375": {
    "id": 289809375,
    "type": "node",
    "lat": 49.274520700000004,
    "lon": -123.1536621,
    "tags": {
      "amenity": "toilets"
    }
  },
  "303264356": {
    "id": 303264356,
    "type": "way",
    "tags": {
      "amenity": "toilets",
      "building": "yes"
    },
    "centroid": {
      "lat": "49.2717404",
      "lon": "-123.0674166"
    }
  },
  "318550441": {
    "id": 318550441,
    "type": "node",
    "lat": 49.259080100000006,
    "lon": -123.22220510000001,
    "tags": {
      "amenity": "toilets",
      "fee": "no"
    }
  },
  "318550442": {
    "id": 318550442,
    "type": "node",
    "lat": 49.2426643,
    "lon": -123.1986265,
    "tags": {
      "amenity": "toilets",
      "fee": "no"
    }
  },
  "332994041": {
    "id": 332994041,
    "type": "way",
    "tags": {
      "amenity": "toilets",
      "building": "civic",
      "building:levels": "1",
      "name": "Bridgman Park Washrooms"
    },
    "centroid": {
      "lat": "49.3124869",
      "lon": "-123.0350768"
    }
  },
  "332994050": {
    "id": 332994050,
    "type": "way",
    "tags": {
      "amenity": "toilets",
      "building": "civic",
      "building:levels": "1",
      "name": "Inter River Park South Fieldhouse"
    },
    "centroid": {
      "lat": "49.3188480",
      "lon": "-123.0279559"
    }
  },
  "648735253": {
    "id": 648735253,
    "type": "node",
    "lat": 49.2898985,
    "lon": -123.12161640000001,
    "tags": {
      "amenity": "toilets",
      "source": "survey",
      "source:location": "gps"
    }
  },
  "652985133": {
    "id": 652985133,
    "type": "node",
    "lat": 49.282662900000005,
    "lon": -123.110094,
    "tags": {
      "amenity": "toilets"
    }
  },
  "676620155": {
    "id": 676620155,
    "type": "node",
    "lat": 49.243416,
    "lon": -123.18842110000001,
    "tags": {
      "amenity": "toilets",
      "name": "Women"
    }
  },
  "676620209": {
    "id": 676620209,
    "type": "node",
    "lat": 49.243230600000004,
    "lon": -123.18845320000001,
    "tags": {
      "amenity": "toilets",
      "name": "Men"
    }
  },
  "724309061": {
    "id": 724309061,
    "type": "node",
    "lat": 49.249475000000004,
    "lon": -123.19114800000001,
    "tags": {
      "amenity": "toilets"
    }
  },
  "1155831288": {
    "id": 1155831288,
    "type": "node",
    "lat": 49.218934700000005,
    "lon": -123.21381430000001,
    "tags": {
      "amenity": "toilets"
    }
  },
  "1231859210": {
    "id": 1231859210,
    "type": "node",
    "lat": 49.254126500000005,
    "lon": -123.25121100000001,
    "tags": {
      "amenity": "toilets"
    }
  },
  "1231859211": {
    "id": 1231859211,
    "type": "node",
    "lat": 49.2532511,
    "lon": -123.2471019,
    "tags": {
      "amenity": "toilets"
    }
  },
  "1235431633": {
    "id": 1235431633,
    "type": "node",
    "lat": 49.2565274,
    "lon": -123.2414729,
    "tags": {
      "amenity": "toilets"
    }
  },
  "1262627138": {
    "id": 1262627138,
    "type": "node",
    "lat": 49.198080000000004,
    "lon": -123.17916100000001,
    "tags": {
      "amenity": "toilets"
    }
  },
  "1262631309": {
    "id": 1262631309,
    "type": "node",
    "lat": 49.198769000000006,
    "lon": -123.18105600000001,
    "tags": {
      "amenity": "toilets"
    }
  },
  "1262643075": {
    "id": 1262643075,
    "type": "node",
    "lat": 49.196839000000004,
    "lon": -123.177175,
    "tags": {
      "amenity": "toilets"
    }
  },
  "1364806384": {
    "id": 1364806384,
    "type": "node",
    "lat": 49.273777200000005,
    "lon": -123.06986160000001,
    "tags": {
      "amenity": "toilets"
    }
  },
  "1379494627": {
    "id": 1379494627,
    "type": "node",
    "lat": 49.2826785,
    "lon": -123.0937576,
    "tags": {
      "addr:housenumber": "488",
      "addr:street": "Powell Street",
      "amenity": "toilets"
    }
  },
  "1382077503": {
    "id": 1382077503,
    "type": "node",
    "lat": 49.2758916,
    "lon": -123.02412980000001,
    "tags": {
      "amenity": "toilets"
    }
  },
  "1415392992": {
    "id": 1415392992,
    "type": "node",
    "lat": 49.24223670000001,
    "lon": -123.11291440000001,
    "tags": {
      "amenity": "toilets"
    }
  },
  "1509346116": {
    "id": 1509346116,
    "type": "node",
    "lat": 49.278952100000005,
    "lon": -123.0893121,
    "tags": {
      "amenity": "toilets"
    }
  },
  "1692226726": {
    "id": 1692226726,
    "type": "node",
    "lat": 49.274346300000005,
    "lon": -123.20287150000001,
    "tags": {
      "amenity": "toilets",
      "source": "survey",
      "source:location": "gps"
    }
  },
  "1692226728": {
    "id": 1692226728,
    "type": "node",
    "lat": 49.276119900000005,
    "lon": -123.21467940000001,
    "tags": {
      "amenity": "toilets",
      "source": "survey",
      "source:location": "gps"
    }
  },
  "1692226729": {
    "id": 1692226729,
    "type": "node",
    "lat": 49.2774337,
    "lon": -123.22236000000001,
    "tags": {
      "amenity": "toilets",
      "source": "survey",
      "source:location": "gps"
    }
  },
  "1796612587": {
    "id": 1796612587,
    "type": "node",
    "lat": 49.273768000000004,
    "lon": -123.0980952,
    "tags": {
      "amenity": "toilets"
    }
  },
  "1809180159": {
    "id": 1809180159,
    "type": "node",
    "lat": 49.2282542,
    "lon": -123.0213528,
    "tags": {
      "amenity": "toilets"
    }
  },
  "2017454969": {
    "id": 2017454969,
    "type": "node",
    "lat": 49.1974279,
    "lon": -123.1743613,
    "tags": {
      "amenity": "toilets"
    }
  },
  "2230406849": {
    "id": 2230406849,
    "type": "node",
    "lat": 49.2995656,
    "lon": -123.12120370000001,
    "tags": {
      "amenity": "toilets"
    }
  },
  "2232022866": {
    "id": 2232022866,
    "type": "node",
    "lat": 49.297816000000005,
    "lon": -123.1314535,
    "tags": {
      "amenity": "toilets",
      "fee": "no"
    }
  },
  "2331296242": {
    "id": 2331296242,
    "type": "node",
    "lat": 49.2957006,
    "lon": -123.15087860000001,
    "tags": {
      "amenity": "toilets",
      "male": "yes",
      "source": "survey"
    }
  },
  "2331296245": {
    "id": 2331296245,
    "type": "node",
    "lat": 49.295439200000004,
    "lon": -123.1505836,
    "tags": {
      "amenity": "toilets",
      "female": "yes",
      "source": "survey"
    }
  },
  "2331296247": {
    "id": 2331296247,
    "type": "node",
    "lat": 49.278837100000004,
    "lon": -123.13795040000001,
    "tags": {
      "amenity": "toilets",
      "source": "survey"
    }
  },
  "2331296266": {
    "id": 2331296266,
    "type": "node",
    "lat": 49.286215500000004,
    "lon": -123.14288540000001,
    "tags": {
      "amenity": "toilets",
      "source": "survey"
    }
  },
  "2331331123": {
    "id": 2331331123,
    "type": "node",
    "lat": 49.2751947,
    "lon": -123.13990170000001,
    "tags": {
      "amenity": "toilets",
      "source": "survey"
    }
  },
  "2331434415": {
    "id": 2331434415,
    "type": "node",
    "lat": 49.2715687,
    "lon": -123.1917882,
    "tags": {
      "amenity": "toilets",
      "fee": "no",
      "source": "survey"
    }
  },
  "2333683224": {
    "id": 2333683224,
    "type": "node",
    "lat": 49.254496,
    "lon": -123.2000091,
    "tags": {
      "amenity": "toilets",
      "source": "survey"
    }
  },
  "2399858062": {
    "id": 2399858062,
    "type": "node",
    "lat": 49.2548546,
    "lon": -123.06525810000001,
    "tags": {
      "amenity": "toilets"
    }
  },
  "2410285546": {
    "id": 2410285546,
    "type": "node",
    "lat": 49.3030843,
    "lon": -123.15588690000001,
    "tags": {
      "amenity": "toilets",
      "source": "local_knowledge"
    }
  },
  "2709915129": {
    "id": 2709915129,
    "type": "node",
    "lat": 49.303048000000004,
    "lon": -123.13072530000001,
    "tags": {
      "amenity": "toilets"
    }
  },
  "2774540447": {
    "id": 2774540447,
    "type": "node",
    "lat": 49.2759736,
    "lon": -123.12418410000001,
    "tags": {
      "amenity": "toilets",
      "fee": "no",
      "toilets:disposal": "flush"
    }
  },
  "2960324271": {
    "id": 2960324271,
    "type": "node",
    "lat": 49.26446970000001,
    "lon": -123.10767030000001,
    "tags": {
      "amenity": "toilets",
      "fee": "no"
    }
  },
  "3123406897": {
    "id": 3123406897,
    "type": "node",
    "lat": 49.28725,
    "lon": -123.14140250000001,
    "tags": {
      "amenity": "toilets",
      "source": "within Starbuck, available to public"
    }
  },
  "3310858962": {
    "id": 3310858962,
    "type": "node",
    "lat": 49.2057802,
    "lon": -123.26260420000001,
    "tags": {
      "amenity": "toilets"
    }
  },
  "3447652963": {
    "id": 3447652963,
    "type": "node",
    "lat": 49.2883232,
    "lon": -123.0200528,
    "tags": {
      "amenity": "toilets"
    }
  },
  "3451216771": {
    "id": 3451216771,
    "type": "node",
    "lat": 49.284600700000006,
    "lon": -123.10180390000001,
    "tags": {
      "amenity": "toilets"
    }
  },
  "3487812045": {
    "id": 3487812045,
    "type": "node",
    "lat": 49.2751138,
    "lon": -123.2062923,
    "tags": {
      "amenity": "toilets"
    }
  },
  "3488231642": {
    "id": 3488231642,
    "type": "node",
    "lat": 49.2693152,
    "lon": -123.1341591,
    "tags": {
      "amenity": "toilets"
    }
  },
  "3488231643": {
    "id": 3488231643,
    "type": "node",
    "lat": 49.272484500000004,
    "lon": -123.1350038,
    "tags": {
      "amenity": "toilets"
    }
  },
  "3488231644": {
    "id": 3488231644,
    "type": "node",
    "lat": 49.270325,
    "lon": -123.1358756,
    "tags": {
      "amenity": "toilets"
    }
  },
  "3488231645": {
    "id": 3488231645,
    "type": "node",
    "lat": 49.272775,
    "lon": -123.1354732,
    "tags": {
      "amenity": "toilets"
    }
  },
  "3488238149": {
    "id": 3488238149,
    "type": "node",
    "lat": 49.273033600000005,
    "lon": -123.15756250000001,
    "tags": {
      "amenity": "toilets"
    }
  },
  "3488239454": {
    "id": 3488239454,
    "type": "node",
    "lat": 49.2922877,
    "lon": -123.1466537,
    "tags": {
      "amenity": "toilets"
    }
  },
  "3488241720": {
    "id": 3488241720,
    "type": "node",
    "lat": 49.2996161,
    "lon": -123.126046,
    "tags": {
      "amenity": "toilets"
    }
  },
  "3488244520": {
    "id": 3488244520,
    "type": "node",
    "lat": 49.3018592,
    "lon": -123.13320540000001,
    "tags": {
      "amenity": "toilets"
    }
  },
  "3488251117": {
    "id": 3488251117,
    "type": "node",
    "lat": 49.2723432,
    "lon": -123.1253602,
    "tags": {
      "amenity": "toilets"
    }
  },
  "3488258244": {
    "id": 3488258244,
    "type": "node",
    "lat": 49.274891800000006,
    "lon": -123.0928348,
    "tags": {
      "amenity": "toilets"
    }
  },
  "3488258906": {
    "id": 3488258906,
    "type": "node",
    "lat": 49.2745814,
    "lon": -123.08625590000001,
    "tags": {
      "amenity": "toilets"
    }
  },
  "3488260319": {
    "id": 3488260319,
    "type": "node",
    "lat": 49.2807657,
    "lon": -123.03934170000001,
    "tags": {
      "amenity": "toilets"
    }
  },
  "3488261066": {
    "id": 3488261066,
    "type": "node",
    "lat": 49.283568,
    "lon": -123.0415859,
    "tags": {
      "amenity": "toilets"
    }
  },
  "3488264320": {
    "id": 3488264320,
    "type": "node",
    "lat": 49.289200300000005,
    "lon": -123.03655200000001,
    "tags": {
      "amenity": "toilets"
    }
  }
}